[{"OBJECT_NAME":"FLOCK 4BE-22","OBJECT_ID":"2024-149AC","EPOCH":"2026-03-14T15:21:32.062752","MEAN_MOTION":15.3797516,"ECCENTRICITY":0.00031033,"INCLINATION":97.3773,"RA_OF_ASC_NODE":156.5128,"ARG_OF_PERICENTER":235.3516,"MEAN_ANOMALY":124.7437,"EPHEMERIS_TYPE":0,"CLASSIFICATION_TYPE":"U","NORAD_CAT_ID":60494,"ELEMENT_SET_NO":999,"REV_AT_EPOCH":8775,"BSTAR":0.0007590354,"MEAN_MOTION_DOT":0.00028341,"MEAN_MOTION_DDOT":0},{"OBJECT_NAME":"FLOCK 4BE-34","OBJECT_ID":"2024-149AD","EPOCH":"2026-03-14T12:44:54.662208","MEAN_MOTION":15.38169619,"ECCENTRICITY":0.0002863,"INCLINATION":97.3817,"RA_OF_ASC_NODE":157.1572,"ARG_OF_PERICENTER":236.5427,"MEAN_ANOMALY":123.5545,"EPHEMERIS_TYPE":0,"CLASSIFICATION_TYPE":"U","NORAD_CAT_ID":60495,"ELEMENT_SET_NO":999,"REV_AT_EPOCH":8776,"BSTAR":0.00055517654,"MEAN_MOTION_DOT":0.00020818,"MEAN_MOTION_DDOT":0},{"OBJECT_NAME":"FLOCK 4BE-32","OBJECT_ID":"2024-149AF","EPOCH":"2026-03-14T11:34:55.847712","MEAN_MOTION":15.38717963,"ECCENTRICITY":0.00030687,"INCLINATION":97.376,"RA_OF_ASC_NODE":156.6146,"ARG_OF_PERICENTER":237.3975,"MEAN_ANOMALY":122.6974,"EPHEMERIS_TYPE":0,"CLASSIFICATION_TYPE":"U","NORAD_CAT_ID":60497,"ELEMENT_SET_NO":999,"REV_AT_EPOCH":8775,"BSTAR":0.00063231055,"MEAN_MOTION_DOT":0.0002416,"MEAN_MOTION_DDOT":0},{"OBJECT_NAME":"FLOCK 4BE-30","OBJECT_ID":"2024-149AH","EPOCH":"2026-03-14T05:36:22.302144","MEAN_MOTION":15.39028415,"ECCENTRICITY":0.00024248,"INCLINATION":97.384,"RA_OF_ASC_NODE":156.9314,"ARG_OF_PERICENTER":244.0221,"MEAN_ANOMALY":116.0775,"EPHEMERIS_TYPE":0,"CLASSIFICATION_TYPE":"U","NORAD_CAT_ID":60499,"ELEMENT_SET_NO":999,"REV_AT_EPOCH":8709,"BSTAR":0.0022425587,"MEAN_MOTION_DOT":0.00087481,"MEAN_MOTION_DDOT":0},{"OBJECT_NAME":"FLOCK 4BE-11","OBJECT_ID":"2024-149AK","EPOCH":"2026-03-14T04:52:58.195776","MEAN_MOTION":15.39530207,"ECCENTRICITY":0.00032144,"INCLINATION":97.374,"RA_OF_ASC_NODE":156.4697,"ARG_OF_PERICENTER":241.8828,"MEAN_ANOMALY":118.2093,"EPHEMERIS_TYPE":0,"CLASSIFICATION_TYPE":"U","NORAD_CAT_ID":60501,"ELEMENT_SET_NO":999,"REV_AT_EPOCH":8772,"BSTAR":0.000651546,"MEAN_MOTION_DOT":0.00025572,"MEAN_MOTION_DDOT":0},{"OBJECT_NAME":"FLOCK 4BE-24","OBJECT_ID":"2024-149AP","EPOCH":"2026-03-14T15:22:22.372608","MEAN_MOTION":15.39399905,"ECCENTRICITY":0.00032869,"INCLINATION":97.3756,"RA_OF_ASC_NODE":157.1553,"ARG_OF_PERICENTER":251.5228,"MEAN_ANOMALY":108.5661,"EPHEMERIS_TYPE":0,"CLASSIFICATION_TYPE":"U","NORAD_CAT_ID":60505,"ELEMENT_SET_NO":999,"REV_AT_EPOCH":8780,"BSTAR":0.00071778422,"MEAN_MOTION_DOT":0.00028069,"MEAN_MOTION_DDOT":0},{"OBJECT_NAME":"TANAGER-1","OBJECT_ID":"2024-149AR","EPOCH":"2026-03-14T07:06:12.938976","MEAN_MOTION":15.43551158,"ECCENTRICITY":0.00080627,"INCLINATION":97.3772,"RA_OF_ASC_NODE":166.7415,"ARG_OF_PERICENTER":227.8124,"MEAN_ANOMALY":132.244,"EPHEMERIS_TYPE":0,"CLASSIFICATION_TYPE":"U","NORAD_CAT_ID":60507,"ELEMENT_SET_NO":999,"REV_AT_EPOCH":8839,"BSTAR":0.00053127558,"MEAN_MOTION_DOT":0.00023831,"MEAN_MOTION_DDOT":0},{"OBJECT_NAME":"FLOCK 4BE-29","OBJECT_ID":"2024-149AT","EPOCH":"2026-03-14T05:00:01.276704","MEAN_MOTION":15.4068457,"ECCENTRICITY":0.00019006,"INCLINATION":97.3838,"RA_OF_ASC_NODE":157.8821,"ARG_OF_PERICENTER":265.7968,"MEAN_ANOMALY":94.3061,"EPHEMERIS_TYPE":0,"CLASSIFICATION_TYPE":"U","NORAD_CAT_ID":60509,"ELEMENT_SET_NO":999,"REV_AT_EPOCH":8777,"BSTAR":0.00063444917,"MEAN_MOTION_DOT":0.0002586,"MEAN_MOTION_DDOT":0},{"OBJECT_NAME":"FLOCK 4BE-2","OBJECT_ID":"2024-149AV","EPOCH":"2026-03-14T14:54:57.552480","MEAN_MOTION":15.43727111,"ECCENTRICITY":0.00030926,"INCLINATION":97.3846,"RA_OF_ASC_NODE":158.9007,"ARG_OF_PERICENTER":249.0931,"MEAN_ANOMALY":110.9986,"EPHEMERIS_TYPE":0,"CLASSIFICATION_TYPE":"U","NORAD_CAT_ID":60511,"ELEMENT_SET_NO":999,"REV_AT_EPOCH":8787,"BSTAR":0.0013439837,"MEAN_MOTION_DOT":0.0006101,"MEAN_MOTION_DDOT":0},{"OBJECT_NAME":"FLOCK 4BE-13","OBJECT_ID":"2024-149AW","EPOCH":"2026-03-14T10:52:11.894880","MEAN_MOTION":15.39037071,"ECCENTRICITY":0.00034657,"INCLINATION":97.3753,"RA_OF_ASC_NODE":157.0652,"ARG_OF_PERICENTER":242.8262,"MEAN_ANOMALY":117.2631,"EPHEMERIS_TYPE":0,"CLASSIFICATION_TYPE":"U","NORAD_CAT_ID":60512,"ELEMENT_SET_NO":999,"REV_AT_EPOCH":8778,"BSTAR":0.0005627046,"MEAN_MOTION_DOT":0.0002171,"MEAN_MOTION_DDOT":0},{"OBJECT_NAME":"FLOCK 4BE-27","OBJECT_ID":"2024-149AX","EPOCH":"2026-03-14T10:54:00.511776","MEAN_MOTION":15.3270545,"ECCENTRICITY":0.00026315,"INCLINATION":97.3866,"RA_OF_ASC_NODE":155.3713,"ARG_OF_PERICENTER":279.8747,"MEAN_ANOMALY":80.2198,"EPHEMERIS_TYPE":0,"CLASSIFICATION_TYPE":"U","NORAD_CAT_ID":60513,"ELEMENT_SET_NO":999,"REV_AT_EPOCH":8762,"BSTAR":0.00038965536,"MEAN_MOTION_DOT":0.00012236,"MEAN_MOTION_DDOT":0},{"OBJECT_NAME":"FLOCK 4BE-9","OBJECT_ID":"2024-149AY","EPOCH":"2026-03-14T04:22:01.525440","MEAN_MOTION":15.3776777,"ECCENTRICITY":0.00016873,"INCLINATION":97.3828,"RA_OF_ASC_NODE":156.7368,"ARG_OF_PERICENTER":262.0611,"MEAN_ANOMALY":98.0442,"EPHEMERIS_TYPE":0,"CLASSIFICATION_TYPE":"U","NORAD_CAT_ID":60514,"ELEMENT_SET_NO":999,"REV_AT_EPOCH":8770,"BSTAR":0.00057316807,"MEAN_MOTION_DOT":0.00021216,"MEAN_MOTION_DDOT":0},{"OBJECT_NAME":"FLOCK 4BE-6","OBJECT_ID":"2024-149BA","EPOCH":"2026-03-14T11:15:14.789088","MEAN_MOTION":15.36798546,"ECCENTRICITY":0.0002397,"INCLINATION":97.3823,"RA_OF_ASC_NODE":156.5433,"ARG_OF_PERICENTER":263.3336,"MEAN_ANOMALY":96.7636,"EPHEMERIS_TYPE":0,"CLASSIFICATION_TYPE":"U","NORAD_CAT_ID":60516,"ELEMENT_SET_NO":999,"REV_AT_EPOCH":8771,"BSTAR":0.00052066056,"MEAN_MOTION_DOT":0.00018666,"MEAN_MOTION_DDOT":0},{"OBJECT_NAME":"FLOCK 4BE-14","OBJECT_ID":"2024-149BB","EPOCH":"2026-03-14T04:53:41.235072","MEAN_MOTION":15.37866159,"ECCENTRICITY":0.0003336,"INCLINATION":97.3734,"RA_OF_ASC_NODE":156.3511,"ARG_OF_PERICENTER":265.4151,"MEAN_ANOMALY":94.6713,"EPHEMERIS_TYPE":0,"CLASSIFICATION_TYPE":"U","NORAD_CAT_ID":60517,"ELEMENT_SET_NO":999,"REV_AT_EPOCH":8771,"BSTAR":0.00056257568,"MEAN_MOTION_DOT":0.00020891,"MEAN_MOTION_DDOT":0},{"OBJECT_NAME":"FLOCK 4BE-1","OBJECT_ID":"2024-149BC","EPOCH":"2026-03-14T15:16:59.994336","MEAN_MOTION":15.39204291,"ECCENTRICITY":0.00033658,"INCLINATION":97.3813,"RA_OF_ASC_NODE":157.7448,"ARG_OF_PERICENTER":259.6731,"MEAN_ANOMALY":100.4135,"EPHEMERIS_TYPE":0,"CLASSIFICATION_TYPE":"U","NORAD_CAT_ID":60518,"ELEMENT_SET_NO":999,"REV_AT_EPOCH":8781,"BSTAR":0.00071243094,"MEAN_MOTION_DOT":0.0002768,"MEAN_MOTION_DDOT":0},{"OBJECT_NAME":"FLOCK 4BE-28","OBJECT_ID":"2024-149BD","EPOCH":"2026-03-14T11:04:52.553568","MEAN_MOTION":15.41257841,"ECCENTRICITY":0.00034512,"INCLINATION":97.3772,"RA_OF_ASC_NODE":158.0163,"ARG_OF_PERICENTER":263.1562,"MEAN_ANOMALY":96.9292,"EPHEMERIS_TYPE":0,"CLASSIFICATION_TYPE":"U","NORAD_CAT_ID":60519,"ELEMENT_SET_NO":999,"REV_AT_EPOCH":8783,"BSTAR":0.00064171361,"MEAN_MOTION_DOT":0.00026664,"MEAN_MOTION_DDOT":0}]
