FLOCK 4BE-22            
1 60494U 24149AC  26073.63995443  .00028341  00000+0  75904-3 0  9999
2 60494  97.3773 156.5128 0003103 235.3516 124.7437 15.37975160 87750
FLOCK 4BE-34            
1 60495U 24149AD  26073.53118822  .00020818  00000+0  55518-3 0  9997
2 60495  97.3817 157.1572 0002863 236.5427 123.5545 15.38169619 87769
FLOCK 4BE-32            
1 60497U 24149AF  26073.48259083  .00024160  00000+0  63231-3 0  9993
2 60497  97.3760 156.6146 0003068 237.3975 122.6974 15.38717963 87750
FLOCK 4BE-30            
1 60499U 24149AH  26073.23359146  .00087481  00000+0  22426-2 0  9994
2 60499  97.3840 156.9314 0002424 244.0221 116.0775 15.39028415 87096
FLOCK 4BE-11            
1 60501U 24149AK  26073.20345134  .00025572  00000+0  65155-3 0  9997
2 60501  97.3740 156.4697 0003214 241.8828 118.2093 15.39530207 87728
FLOCK 4BE-24            
1 60505U 24149AP  26073.64053672  .00028069  00000+0  71778-3 0  9994
2 60505  97.3756 157.1553 0003286 251.5228 108.5661 15.39399905 87809
TANAGER-1               
1 60507U 24149AR  26073.29598309  .00023831  00000+0  53128-3 0  9999
2 60507  97.3772 166.7415 0008062 227.8124 132.2440 15.43551158 88399
FLOCK 4BE-29            
1 60509U 24149AT  26073.20834811  .00025860  00000+0  63445-3 0  9990
2 60509  97.3838 157.8821 0001900 265.7968  94.3061 15.40684570 87777
FLOCK 4BE-2             
1 60511U 24149AV  26073.62149945  .00061010  00000+0  13440-2 0  9992
2 60511  97.3846 158.9007 0003092 249.0931 110.9986 15.43727111 87870
FLOCK 4BE-13            
1 60512U 24149AW  26073.45291545  .00021710  00000+0  56270-3 0  9990
2 60512  97.3753 157.0652 0003465 242.8262 117.2631 15.39037071 87787
FLOCK 4BE-27            
1 60513U 24149AX  26073.45417259  .00012236  00000+0  38966-3 0  9998
2 60513  97.3866 155.3713 0002631 279.8747  80.2198 15.32705450 87620
FLOCK 4BE-9             
1 60514U 24149AY  26073.18196210  .00021216  00000+0  57317-3 0  9999
2 60514  97.3828 156.7368 0001687 262.0611  98.0442 15.37767770 87700
FLOCK 4BE-6             
1 60516U 24149BA  26073.46892117  .00018666  00000+0  52066-3 0  9992
2 60516  97.3823 156.5433 0002397 263.3336  96.7636 15.36798546 87710
FLOCK 4BE-14            
1 60517U 24149BB  26073.20394948  .00020891  00000+0  56258-3 0  9994
2 60517  97.3734 156.3511 0003336 265.4151  94.6713 15.37866159 87719
FLOCK 4BE-1             
1 60518U 24149BC  26073.63680549  .00027680  00000+0  71243-3 0  9991
2 60518  97.3813 157.7448 0003365 259.6731 100.4135 15.39204291 87813
FLOCK 4BE-28            
1 60519U 24149BD  26073.46171937  .00026664  00000+0  64171-3 0  9992
2 60519  97.3772 158.0163 0003451 263.1562  96.9292 15.41257841 87831
